{
  "norad_id": 56707,
  "name": "STARLINK-30070",
  "history": [
    {
      "epoch": "2026-03-28T16:19:37.434432",
      "apogee_km": 484.3770792608966,
      "perigee_km": 481.76981929017165,
      "latitude_deg": -40.419937644301584,
      "longitude_deg": -83.9917395201046,
      "semi_major_axis_km": 6861.210449275534,
      "eccentricity": 0.00019,
      "inclination_deg": 43.0045,
      "raan_deg": 163.8742,
      "arg_perigee_deg": 276.8403,
      "mean_anomaly_deg": 83.2233,
      "mean_motion_rev_day": 15.27571867
    }
  ]
}