{"fetched_at":"2026-03-30T06:02:59Z","count":15439,"tles":[{"name":"STARLINK-30070","line1":"1 56707U 23067V   26087.68029438  .00004208  00000+0  16239-3 0  9993","line2":"2 56707  43.0045 163.8742 0001900 276.8403  83.2233 15.27571867158604","category":"Starlink"}]}